{"type": "FeatureCollection", "features": [ {"type": "Feature", "properties": {"norad_id": 33841, "name": "COSMOS 2251 DEB", "group": "cosmos-2251-debris", "lat": -25.26371227755557, "lon": 77.82861216431284, "alt_km": 778.5978822097177, "timestamp": "2025-12-27T22:26:48.993429+00:00", "meta": {"OBJECT_NAME": "COSMOS 2251 DEB", "OBJECT_ID": "1993-036CJ", "EPOCH": "2025-12-27T10:37:26.198112", "MEAN_MOTION": 14.37880978, "ECCENTRICITY": 0.0021105, "INCLINATION": 74.037, "RA_OF_ASC_NODE": 250.9721, "ARG_OF_PERICENTER": 328.7282, "MEAN_ANOMALY": 208.7419, "EPHEMERIS_TYPE": 0, "CLASSIFICATION_TYPE": "U", "NORAD_CAT_ID": 33841, "ELEMENT_SET_NO": 999, "REV_AT_EPOCH": 88325, "BSTAR": 0.00022408, "MEAN_MOTION_DOT": 6.51e-06, "MEAN_MOTION_DDOT": 0}, "tle": {"line1": "1 33841U 93036CJ  25361.44266433  .00000651  00000+0  22408-3 0  9999", "line2": "2 33841  74.0370 250.9721 0021105 328.7282 208.7419 14.37880978883251"}}, "geometry": {"type": "Point", "coordinates": [77.82861216431284, -25.26371227755557]}}, {"type": "Feature", "properties": {"norad_id": 33842, "name": "COSMOS 2251 DEB", "group": "cosmos-2251-debris", "lat": 5.901327680876924, "lon": -166.85793809424231, "alt_km": 739.8393307548413, "timestamp": "2025-12-27T22:26:48.993439+00:00", "meta": {"OBJECT_NAME": "COSMOS 2251 DEB", "OBJECT_ID": "1993-036CK", "EPOCH": "2025-12-27T12:26:00.766752", "MEAN_MOTION": 14.42725395, "ECCENTRICITY": 0.0047629, "INCLINATION": 74.0314, "RA_OF_ASC_NODE": 192.2203, "ARG_OF_PERICENTER": 296.6395, "MEAN_ANOMALY": 62.9887, "EPHEMERIS_TYPE": 0, "CLASSIFICATION_TYPE": "U", "NORAD_CAT_ID": 33842, "ELEMENT_SET_NO": 999, "REV_AT_EPOCH": 88550, "BSTAR": 0.00030375, "MEAN_MOTION_DOT": 9.98e-06, "MEAN_MOTION_DDOT": 0}, "tle": {"line1": "1 33842U 93036CK  25361.51806443  .00000998  00000+0  30375-3 0  9995", "line2": "2 33842  74.0314 192.2203 0047629 296.6395  62.9887 14.42725395885506"}}, "geometry": {"type": "Point", "coordinates": [-166.85793809424231, 5.901327680876924]}}, {"type": "Feature", "properties": {"norad_id": 33844, "name": "COSMOS 2251 DEB", "group": "cosmos-2251-debris", "lat": 13.478899517353002, "lon": -158.89022078914934, "alt_km": 798.5916638363751, "timestamp": "2025-12-27T22:26:48.993449+00:00", "meta": {"OBJECT_NAME": "COSMOS 2251 DEB", "OBJECT_ID": "1993-036CM", "EPOCH": "2025-12-27T12:20:12.038208", "MEAN_MOTION": 14.33746182, "ECCENTRICITY": 0.004728, "INCLINATION": 74.0664, "RA_OF_ASC_NODE": 25.8049, "ARG_OF_PERICENTER": 43.0544, "MEAN_ANOMALY": 108.8967, "EPHEMERIS_TYPE": 0, "CLASSIFICATION_TYPE": "U", "NORAD_CAT_ID": 33844, "ELEMENT_SET_NO": 999, "REV_AT_EPOCH": 87937, "BSTAR": 0.00040801, "MEAN_MOTION_DOT": 1.122e-05, "MEAN_MOTION_DDOT": 0}, "tle": {"line1": "1 33844U 93036CM  25361.51402822  .00001122  00000+0  40801-3 0  9995", "line2": "2 33844  74.0664  25.8049 0047280  43.0544 108.8967 14.33746182879372"}}, "geometry": {"type": "Point", "coordinates": [-158.89022078914934, 13.478899517353002]}}, {"type": "Feature", "properties": {"norad_id": 33848, "name": "COSMOS 2251 DEB", "group": "cosmos-2251-debris", "lat": -11.84755479387999, "lon": 152.81129337915317, "alt_km": 778.3782500022517, "timestamp": "2025-12-27T22:26:48.993459+00:00", "meta": {"OBJECT_NAME": "COSMOS 2251 DEB", "OBJECT_ID": "1993-036CR", "EPOCH": "2025-12-27T08:48:01.769760", "MEAN_MOTION": 14.44169116, "ECCENTRICITY": 0.0042062, "INCLINATION": 74.0323, "RA_OF_ASC_NODE": 330.4254, "ARG_OF_PERICENTER": 22.1639, "MEAN_ANOMALY": 95.0027, "EPHEMERIS_TYPE": 0, "CLASSIFICATION_TYPE": "U", "NORAD_CAT_ID": 33848, "ELEMENT_SET_NO": 999, "REV_AT_EPOCH": 88042, "BSTAR": 0.0013985, "MEAN_MOTION_DOT": 4.825e-05, "MEAN_MOTION_DDOT": 0}, "tle": {"line1": "1 33848U 93036CR  25361.36668715  .00004825  00000+0  13985-2 0  9992", "line2": "2 33848  74.0323 330.4254 0042062  22.1639  95.0027 14.44169116880427"}}, "geometry": {"type": "Point", "coordinates": [152.81129337915317, -11.84755479387999]}}, {"type": "Feature", "properties": {"norad_id": 33892, "name": "COSMOS 2251 DEB", "group": "cosmos-2251-debris", "lat": 58.048633723441846, "lon": 102.11428665588552, "alt_km": 746.2820935204727, "timestamp": "2025-12-27T22:26:48.993469+00:00", "meta": {"OBJECT_NAME": "COSMOS 2251 DEB", "OBJECT_ID": "1993-036CV", "EPOCH": "2025-12-27T07:15:50.025312", "MEAN_MOTION": 14.23385068, "ECCENTRICITY": 0.0111951, "INCLINATION": 73.8025, "RA_OF_ASC_NODE": 75.4904, "ARG_OF_PERICENTER": 103.8272, "MEAN_ANOMALY": 318.6959, "EPHEMERIS_TYPE": 0, "CLASSIFICATION_TYPE": "U", "NORAD_CAT_ID": 33892, "ELEMENT_SET_NO": 999, "REV_AT_EPOCH": 87162, "BSTAR": 0.00063909, "MEAN_MOTION_DOT": 1.521e-05, "MEAN_MOTION_DDOT": 0}, "tle": {"line1": "1 33892U 93036CV  25361.30266233  .00001521  00000+0  63909-3 0  9996", "line2": "2 33892  73.8025  75.4904 0111951 103.8272 318.6959 14.23385068871627"}}, "geometry": {"type": "Point", "coordinates": [102.11428665588552, 58.048633723441846]}}, {"type": "Feature", "properties": {"norad_id": 33894, "name": "COSMOS 2251 DEB", "group": "cosmos-2251-debris", "lat": 28.513451672774334, "lon": 136.45922835444603, "alt_km": 1174.4012332453185, "timestamp": "2025-12-27T22:26:48.993479+00:00", "meta": {"OBJECT_NAME": "COSMOS 2251 DEB", "OBJECT_ID": "1993-036CX", "EPOCH": "2025-12-26T07:28:06.751200", "MEAN_MOTION": 13.21329669, "ECCENTRICITY": 0.0578513, "INCLINATION": 73.7663, "RA_OF_ASC_NODE": 328.0775, "ARG_OF_PERICENTER": 245.6983, "MEAN_ANOMALY": 108.2665, "EPHEMERIS_TYPE": 0, "CLASSIFICATION_TYPE": "U", "NORAD_CAT_ID": 33894, "ELEMENT_SET_NO": 999, "REV_AT_EPOCH": 80887, "BSTAR": 0.00063858, "MEAN_MOTION_DOT": 6.11e-06, "MEAN_MOTION_DDOT": 0}, "tle": {"line1": "1 33894U 93036CX  25360.31118925  .00000611  00000+0  63858-3 0  9994", "line2": "2 33894  73.7663 328.0775 0578513 245.6983 108.2665 13.21329669808870"}}, "geometry": {"type": "Point", "coordinates": [136.45922835444603, 28.513451672774334]}}, {"type": "Feature", "properties": {"norad_id": 33896, "name": "COSMOS 2251 DEB", "group": "cosmos-2251-debris", "lat": -68.48635916880262, "lon": -3.2494383991286595, "alt_km": 771.8030111062199, "timestamp": "2025-12-27T22:26:48.993489+00:00", "meta": {"OBJECT_NAME": "COSMOS 2251 DEB", "OBJECT_ID": "1993-036CZ", "EPOCH": "2025-12-27T09:29:51.374400", "MEAN_MOTION": 14.19075586, "ECCENTRICITY": 0.0127313, "INCLINATION": 73.7667, "RA_OF_ASC_NODE": 130.075, "ARG_OF_PERICENTER": 303.4162, "MEAN_ANOMALY": 77.9599, "EPHEMERIS_TYPE": 0, "CLASSIFICATION_TYPE": "U", "NORAD_CAT_ID": 33896, "ELEMENT_SET_NO": 999, "REV_AT_EPOCH": 86948, "BSTAR": 0.00075827, "MEAN_MOTION_DOT": 1.69e-05, "MEAN_MOTION_DDOT": 0}, "tle": {"line1": "1 33896U 93036CZ  25361.39573350  .00001690  00000+0  75827-3 0  9999", "line2": "2 33896  73.7667 130.0750 0127313 303.4162  77.9599 14.19075586869486"}}, "geometry": {"type": "Point", "coordinates": [-3.2494383991286595, -68.48635916880262]}}, {"type": "Feature", "properties": {"norad_id": 33899, "name": "COSMOS 2251 DEB", "group": "cosmos-2251-debris", "lat": 57.51158267467538, "lon": 83.3817007223837, "alt_km": 659.4124654308407, "timestamp": "2025-12-27T22:26:48.993499+00:00", "meta": {"OBJECT_NAME": "COSMOS 2251 DEB", "OBJECT_ID": "1993-036DC", "EPOCH": "2025-12-27T04:14:10.163328", "MEAN_MOTION": 14.61309845, "ECCENTRICITY": 0.00558562, "INCLINATION": 74.0533, "RA_OF_ASC_NODE": 58.1499, "ARG_OF_PERICENTER": 116.4994, "MEAN_ANOMALY": 275.2794, "EPHEMERIS_TYPE": 0, "CLASSIFICATION_TYPE": "U", "NORAD_CAT_ID": 33899, "ELEMENT_SET_NO": 999, "REV_AT_EPOCH": 89050, "BSTAR": 0.00089429364, "MEAN_MOTION_DOT": 4.488e-05, "MEAN_MOTION_DDOT": 0}, "tle": {"line1": "1 33899U 93036DC  25361.17650652  .00004488  00000+0  89429-3 0  9990", "line2": "2 33899  74.0533  58.1499 0055856 116.4994 275.2794 14.61309845890504"}}, "geometry": {"type": "Point", "coordinates": [83.3817007223837, 57.51158267467538]}}, {"type": "Feature", "properties": {"norad_id": 33900, "name": "COSMOS 2251 DEB", "group": "cosmos-2251-debris", "lat": -56.45197994604797, "lon": -54.69502826291839, "alt_km": 737.7928621849887, "timestamp": "2025-12-27T22:26:48.993509+00:00", "meta": {"OBJECT_NAME": "COSMOS 2251 DEB", "OBJECT_ID": "1993-036DD", "EPOCH": "2025-12-27T08:35:25.254816", "MEAN_MOTION": 14.58400769, "ECCENTRICITY": 0.0046277, "INCLINATION": 74.0196, "RA_OF_ASC_NODE": 332.0095, "ARG_OF_PERICENTER": 119.7611, "MEAN_ANOMALY": 30.1772, "EPHEMERIS_TYPE": 0, "CLASSIFICATION_TYPE": "U", "NORAD_CAT_ID": 33900, "ELEMENT_SET_NO": 999, "REV_AT_EPOCH": 89249, "BSTAR": 0.00049459, "MEAN_MOTION_DOT": 2.297e-05, "MEAN_MOTION_DDOT": 0}, "tle": {"line1": "1 33900U 93036DD  25361.35793119  .00002297  00000+0  49459-3 0  9994", "line2": "2 33900  74.0196 332.0095 0046277 119.7611  30.1772 14.58400769892494"}}, "geometry": {"type": "Point", "coordinates": [-54.69502826291839, -56.45197994604797]}}, {"type": "Feature", "properties": {"norad_id": 33901, "name": "COSMOS 2251 DEB", "group": "cosmos-2251-debris", "lat": -47.90543840043274, "lon": -144.10113428867635, "alt_km": 517.8048010210932, "timestamp": "2025-12-27T22:26:48.993518+00:00", "meta": {"OBJECT_NAME": "COSMOS 2251 DEB", "OBJECT_ID": "1993-036DE", "EPOCH": "2025-12-27T11:56:36.446784", "MEAN_MOTION": 15.17502519, "ECCENTRICITY": 0.0029739, "INCLINATION": 73.7742, "RA_OF_ASC_NODE": 18.0213, "ARG_OF_PERICENTER": 146.7552, "MEAN_ANOMALY": 213.5519, "EPHEMERIS_TYPE": 0, "CLASSIFICATION_TYPE": "U", "NORAD_CAT_ID": 33901, "ELEMENT_SET_NO": 999, "REV_AT_EPOCH": 89737, "BSTAR": 0.0027764, "MEAN_MOTION_DOT": 0.00056707, "MEAN_MOTION_DDOT": 0}, "tle": {"line1": "1 33901U 93036DE  25361.49764406  .00056707  00000+0  27764-2 0  9996", "line2": "2 33901  73.7742  18.0213 0029739 146.7552 213.5519 15.17502519897379"}}, "geometry": {"type": "Point", "coordinates": [-144.10113428867635, -47.90543840043274]}}]}